GLOBALSTAR M001         
1 25162U 98008A   24119.37657566 -.00000060  00000+0  28413-3 0  9990
2 25162  52.0016 100.5332 0001613  90.5198  75.0167 12.38183056192329
GLOBALSTAR M004         
1 25163U 98008B   24119.58373900 -.00000017  00000+0  47952-3 0  9992
2 25163  51.9993 238.9718 0003560  96.0401 277.1095 12.63357258209281
GLOBALSTAR M002         
1 25164U 98008C   24119.53941254 -.00000042  00000+0  67056-3 0  9996
2 25164  52.0002 199.8576 0001663 117.9932 242.1056 11.61502204135889
GLOBALSTAR M003         
1 25165U 98008D   24119.62960265  .00000093  00000+0  19450-2 0  9999
2 25165  51.9848 236.6962 0008382 176.1711 196.9203 12.11997644182954
GLOBALSTAR M014         
1 25306U 98023A   24119.47842649 -.00000072  00000+0  93414-4 0  9993
2 25306  51.9805 131.9514 0000900 313.2486 215.5245 11.65467368142813
GLOBALSTAR M006         
1 25307U 98023B   24119.54231038 -.00000010  00000+0  13501-2 0  9995
2 25307  51.9914 168.7683 0003553  85.7551  83.6922 11.58162628168784
GLOBALSTAR M015         
1 25308U 98023C   24119.62939609 -.00000039  00000+0  79561-3 0  9994
2 25308  51.9818 248.0212 0012810  62.3060 311.0502 11.48850806146431
GLOBALSTAR M008         
1 25309U 98023D   24119.55211841 -.00000051  00000+0  35650-3 0  9993
2 25309  51.9974 320.1596 0002918  38.1050 339.0375 12.36042402186570
